      2.10          N: GNSS NAV DATA                        RINEX VERSION / TYPE
fic2rin                                 09/05/2023 00:18:28 PGM / RUN BY / DATE
                                                            END OF HEADER
19 23  9  4 14  0  0.0  .366926658899D-03  .522959453519D-11  .000000000000D+00
     .850000000000D+02 -.349375000000D+02  .445197115675D-08  .136793745003D+01
    -.186078250408D-05  .943914439995D-02  .352039933205D-05  .515364406013D+04
     .136800000000D+06  .217929482460D-06 -.442031428155D+00  .149011611938D-07
     .972050680075D+00  .317375000000D+03  .240464776625D+01 -.816498296146D-08
    -.148577617426D-09  .100000000000D+01  .227800000000D+04  .000000000000D+00
     .240000000000D+01  .000000000000D+00 -.153668224812D-07  .850000000000D+02
     .129600000000D+06  .400000000000D+01
13 23  9  4 14  0  0.0  .568475108594D-03  .454747350886D-11  .000000000000D+00
     .600000000000D+02 -.398125000000D+02  .462304971143D-08 -.108916137581D+01
    -.214017927647D-05  .744172662962D-02  .669993460178D-05  .515366229439D+04
     .136800000000D+06  .109896063805D-06  .273225484783D+01  .162050127983D-06
     .970483954792D+00  .255031250000D+03  .932159737726D+00 -.808105089392D-08
    -.426089176896D-09  .100000000000D+01  .227800000000D+04  .000000000000D+00
     .240000000000D+01  .000000000000D+00 -.116415321827D-07  .600000000000D+02
     .129600000000D+06  .400000000000D+01
14 23  9  4 14  0  0.0  .174801331013D-03  .114823706099D-10  .000000000000D+00
     .350000000000D+02  .923750000000D+02  .472483966568D-08  .195046353968D+01
     .481307506561D-05  .354618078563D-02  .653788447380D-05  .515368156052D+04
     .136800000000D+06 -.670552253723D-07 -.156628455431D+01  .204890966415D-07
     .947537806764D+00  .244906250000D+03 -.294630573693D+01 -.827213028172D-08
     .160720980388D-09  .100000000000D+01  .227800000000D+04  .000000000000D+00
     .240000000000D+01  .000000000000D+00 -.791624188423D-08  .803000000000D+03
     .129600000000D+06  .400000000000D+01
11 23  9  4 14  0  0.0 -.352625269443D-03 -.180762071977D-10  .000000000000D+00
     .123000000000D+03 -.582500000000D+02  .438196824085D-08 -.131923678282D+01
    -.299513339996D-05  .111562013626D-02  .972300767899D-05  .515359277916D+04
     .136800000000D+06  .130385160446D-07  .548084555179D+00  .614672899246D-07
     .965925052941D+00  .193781250000D+03 -.277757991495D+01 -.797247494272D-08
     .675028117631D-10  .100000000000D+01  .227800000000D+04  .000000000000D+00
     .240000000000D+01  .000000000000D+00 -.838190317154D-08  .635000000000D+03
     .129600000000D+06  .400000000000D+01
23 23  9  4 14  0  0.0  .638519413769D-04  .511590769747D-11  .000000000000D+00
     .152000000000D+03  .359375000000D+01  .436553898508D-08  .253369607100D+01
     .279396772385D-06  .358291971497D-02  .859983265400D-05  .515367731857D+04
     .136800000000D+06 -.119209289551D-06  .151681823236D+01  .949949026108D-07
     .974986712773D+00  .221781250000D+03 -.310212778028D+01 -.791104381244D-08
     .506092509356D-09  .100000000000D+01  .227800000000D+04  .000000000000D+00
     .240000000000D+01  .000000000000D+00 -.838190317154D-08  .408000000000D+03
     .129600000000D+06  .400000000000D+01
13 23  9  4 13 59 44.0  .568472780287D-03  .454747350886D-11  .000000000000D+00
     .800000000000D+01 -.398125000000D+02  .462269255370D-08 -.109149478573D+01
    -.214017927647D-05  .744172488339D-02  .669993460178D-05  .515366228485D+04
     .136784000000D+06  .109896063805D-06  .273225498095D+01  .162050127983D-06
     .970483969421D+00  .255031250000D+03  .932159448068D+00 -.808105089392D-08
    -.426089176896D-09  .100000000000D+01  .227800000000D+04  .000000000000D+00
     .240000000000D+01  .000000000000D+00 -.116415321827D-07  .800000000000D+01
     .136230000000D+06  .400000000000D+01
2  23  9  4 13 59 44.0 -.557842664421D-03  .432009983342D-11  .000000000000D+00
     .110000000000D+02 -.619062500000D+02  .442554148442D-08 -.197093844310D+00
    -.341236591339D-05  .159948066575D-01  .865757465363D-05  .515353611374D+04
     .136784000000D+06 -.260770320892D-06  .416635765706D+00 -.968575477600D-07
     .967801106401D+00  .221718750000D+03 -.134694685189D+01 -.826820154664D-08
     .435732435719D-10  .100000000000D+01  .227800000000D+04  .000000000000D+00
     .240000000000D+01  .000000000000D+00 -.176951289177D-07  .110000000000D+02
     .136350000000D+06  .400000000000D+01
2  23  9  4 15 59 44.0 -.557811465114D-03  .432009983342D-11  .000000000000D+00
     .120000000000D+02 -.851562500000D+02  .433268047353D-08  .853068114831D+00
    -.458396971226D-05  .159974452108D-01  .869110226631D-05  .515354195023D+04
     .143984000000D+06 -.121071934700D-06  .416576418046D+00 -.275671482086D-06
     .967800892815D+00  .221375000000D+03 -.134684581984D+01 -.827070165078D-08
    -.478591363823D-10  .100000000000D+01  .227800000000D+04  .000000000000D+00
     .240000000000D+01  .000000000000D+00 -.176951289177D-07  .120000000000D+02
     .136800000000D+06  .400000000000D+01
13 23  9  4 15 59 44.0  .568505842239D-03  .454747350886D-11  .000000000000D+00
     .140000000000D+02 -.350625000000D+02  .476591280511D-08 -.412468640632D-01
    -.173412263393D-05  .744249927811D-02  .630319118500D-05  .515366397858D+04
     .143984000000D+06 -.316649675369D-07  .273219561281D+01  .111758708954D-07
     .970480225814D+00  .259281250000D+03  .932100474915D+00 -.827748764773D-08
    -.377872882779D-09  .100000000000D+01  .227800000000D+04  .000000000000D+00
     .240000000000D+01  .000000000000D+00 -.116415321827D-07  .140000000000D+02
     .136800000000D+06  .400000000000D+01
1  23  9  4 16  0  0.0  .166366808116D-03 -.102318153949D-11  .000000000000D+00
     .960000000000D+02 -.675937500000D+02  .371515475111D-08 -.183781782353D+01
    -.355765223503D-05  .128775843186D-01  .896863639355D-05  .515363992119D+04
     .144000000000D+06  .255182385445D-06  .517337918755D+00 -.838190317154D-07
     .990475233589D+00  .216937500000D+03  .992560765214D+00 -.755531470918D-08
     .124290891500D-09  .100000000000D+01  .227800000000D+04  .000000000000D+00
     .485000000000D+01  .630000000000D+02  .512227416039D-08  .960000000000D+02
     .136800000000D+06  .400000000000D+01
3  23  9  4 16  0  0.0 -.152920372784D-03  .198951966013D-10  .000000000000D+00
     .380000000000D+02 -.421875000000D+01  .428374986395D-08 -.303889201400D+01
    -.227242708206D-06  .513102672994D-02  .813975930214D-05  .515360431480D+04
     .144000000000D+06  .126659870148D-06  .154708788580D+01 -.171363353729D-06
     .980131437243D+00  .230843750000D+03  .110373443614D+01 -.783282626865D-08
     .448947271884D-09  .100000000000D+01  .227800000000D+04  .000000000000D+00
     .340000000000D+01  .000000000000D+00  .186264514923D-08  .380000000000D+02
     .136800000000D+06  .400000000000D+01
29 23  9  4 16  0  0.0 -.608892180026D-03 -.568434188608D-12  .000000000000D+00
     .190000000000D+02 -.291875000000D+02  .434160941689D-08  .251822758046D+00
    -.147335231304D-05  .261529290583D-02  .338815152645D-05  .515371545410D+04
     .144000000000D+06 -.204890966415D-07 -.472220063735D+00 -.633299350739D-07
     .975231878825D+00  .318593750000D+03  .254985309564D+01 -.830606026646D-08
    -.850035407387D-10  .100000000000D+01  .227800000000D+04  .000000000000D+00
     .240000000000D+01  .000000000000D+00 -.977888703346D-08  .190000000000D+02
     .136800000000D+06  .400000000000D+01
16 23  9  4 16  0  0.0 -.458934810013D-03  .534328137292D-11  .000000000000D+00
     .100000000000D+02  .103750000000D+03  .440804075545D-08  .130024306786D+01
     .545196235180D-05  .133497951319D-01  .727549195290D-05  .515365718460D+04
     .144000000000D+06 -.150874257088D-06 -.150790810597D+01  .279396772385D-07
     .963819457395D+00  .244250000000D+03  .793565159586D+00 -.829820279631D-08
     .550022910662D-10  .100000000000D+01  .227800000000D+04  .000000000000D+00
     .240000000000D+01  .000000000000D+00 -.102445483208D-07  .100000000000D+02
     .136800000000D+06  .400000000000D+01
